STARLINK2_L_00001006-01
1 53806U 24230YX  26070.40770833  .00000000  00000+0  00000-0 0  9999
2 53806  53.0000  32.1429 0000000   0.0000   1.0714 15.28598846    13
STARLINK2_L_00001006-02
1 53807U 22006BU  26070.40770833  .00000000  00000+0  00000-0 0  9999
2 53807  53.0000  32.1429 0000000   0.0000   4.0714 15.28598846    17
STARLINK2_L_00001006-03
1 53808U 26723MY  26070.40770833  .00000000  00000+0  00000-0 0  9990
2 53808  53.0000  32.1429 0000000   0.0000   7.0714 15.28598846    11
STARLINK2_L_00001006-04
1 53809U 25140KG  26070.40770833  .00000000  00000+0  00000-0 0  9993
2 53809  53.0000  32.1429 0000000   0.0000  10.0714 15.28598846    16
STARLINK2_L_00001006-05
1 53810U 25969QN  26070.40770833  .00000000  00000+0  00000-0 0  9994
2 53810  53.0000  32.1429 0000000   0.0000  13.0714 15.28598846    11
STARLINK2_L_00001006-06
1 53811U 23046KQ  26070.40770833  .00000000  00000+0  00000-0 0  9999
2 53811  53.0000  32.1429 0000000   0.0000  16.0714 15.28598846    15
STARLINK2_L_00001006-07
1 53812U 23675DV  26070.40770833  .00000000  00000+0  00000-0 0  9998
2 53812  53.0000  32.1429 0000000   0.0000  19.0714 15.28598846    19
STARLINK2_L_00001006-08
1 53813U 26112ZL  26070.40770833  .00000000  00000+0  00000-0 0  9998
2 53813  53.0000  32.1429 0000000   0.0000  22.0714 15.28598846    14
STARLINK2_L_00001006-09
1 53814U 25048KH  26070.40770833  .00000000  00000+0  00000-0 0  9996
2 53814  53.0000  32.1429 0000000   0.0000  25.0714 15.28598846    18
STARLINK2_L_00001006-10
1 53815U 25941GS  26070.40770833  .00000000  00000+0  00000-0 0  9999
2 53815  53.0000  32.1429 0000000   0.0000  28.0714 15.28598846    12
STARLINK2_L_00001006-11
1 53816U 24390AD  26070.40770833  .00000000  00000+0  00000-0 0  9997
2 53816  53.0000  32.1429 0000000   0.0000  31.0714 15.28598846    17
STARLINK2_L_00001006-12
1 53817U 22584SK  26070.40770833  .00000000  00000+0  00000-0 0  9991
2 53817  53.0000  32.1429 0000000   0.0000  34.0714 15.28598846    11
STARLINK2_L_00001006-13
1 53818U 24002FI  26070.40770833  .00000000  00000+0  00000-0 0  9999
2 53818  53.0000  32.1429 0000000   0.0000  37.0714 15.28598846    15
STARLINK2_L_00001006-14
1 53819U 24423UT  26070.40770833  .00000000  00000+0  00000-0 0  9997
2 53819  53.0000  32.1429 0000000   0.0000  40.0714 15.28598846    10
STARLINK2_L_00001006-15
1 53820U 25511UX  26070.40770833  .00000000  00000+0  00000-0 0  9998
2 53820  53.0000  32.1429 0000000   0.0000  43.0714 15.28598846    15
STARLINK2_L_00001006-16
1 53821U 26876VM  26070.40770833  .00000000  00000+0  00000-0 0  9994
2 53821  53.0000  32.1429 0000000   0.0000  46.0714 15.28598846    19
STARLINK2_L_00001006-17
1 53822U 26991MF  26070.40770833  .00000000  00000+0  00000-0 0  9993
2 53822  53.0000  32.1429 0000000   0.0000  49.0714 15.28598846    13
STARLINK2_L_00001006-18
1 53823U 25673EV  26070.40770833  .00000000  00000+0  00000-0 0  9990
2 53823  53.0000  32.1429 0000000   0.0000  52.0714 15.28598846    18
STARLINK2_L_00001006-19
1 53824U 26666LD  26070.40770833  .00000000  00000+0  00000-0 0  9994
2 53824  53.0000  32.1429 0000000   0.0000  55.0714 15.28598846    12
STARLINK2_L_00001006-20
1 53825U 22454DJ  26070.40770833  .00000000  00000+0  00000-0 0  9996
2 53825  53.0000  32.1429 0000000   0.0000  58.0714 15.28598846    16
STARLINK2_L_00001006-21
1 53826U 22763ZT  26070.40770833  .00000000  00000+0  00000-0 0  9990
2 53826  53.0000  32.1429 0000000   0.0000  61.0714 15.28598846    11
STARLINK2_L_00001006-22
1 53827U 25637YA  26070.40770833  .00000000  00000+0  00000-0 0  9994
2 53827  53.0000  32.1429 0000000   0.0000  64.0714 15.28598846    15
STARLINK2_L_00001006-23
1 53828U 22111SG  26070.40770833  .00000000  00000+0  00000-0 0  9999
2 53828  53.0000  32.1429 0000000   0.0000  67.0714 15.28598846    19
STARLINK2_L_00001006-24
1 53829U 24833TZ  26070.40770833  .00000000  00000+0  00000-0 0  9993
2 53829  53.0000  32.1429 0000000   0.0000  70.0714 15.28598846    14
STARLINK2_L_00001006-25
1 53830U 25589YI  26070.40770833  .00000000  00000+0  00000-0 0  9994
2 53830  53.0000  32.1429 0000000   0.0000  73.0714 15.28598846    19
STARLINK2_L_00001006-26
1 53831U 26671KS  26070.40770833  .00000000  00000+0  00000-0 0  9998
2 53831  53.0000  32.1429 0000000   0.0000  76.0714 15.28598846    13
STARLINK2_L_00001006-27
1 53832U 23705Q   26070.40770833  .00000000  00000+0  00000-0 0  9994
2 53832  53.0000  32.1429 0000000   0.0000  79.0714 15.28598846    17
STARLINK2_L_00001006-28
1 53833U 22291UN  26070.40770833  .00000000  00000+0  00000-0 0  9994
2 53833  53.0000  32.1429 0000000   0.0000  82.0714 15.28598846    12
STARLINK2_L_00001006-29
1 53834U 23267RE  26070.40770833  .00000000  00000+0  00000-0 0  9999
2 53834  53.0000  32.1429 0000000   0.0000  85.0714 15.28598846    16
STARLINK2_L_00001006-30
1 53835U 22545IG  26070.40770833  .00000000  00000+0  00000-0 0  9998
2 53835  53.0000  32.1429 0000000   0.0000  88.0714 15.28598846    10
STARLINK2_L_00001006-31
1 53836U 23125JN  26070.40770833  .00000000  00000+0  00000-0 0  9994
2 53836  53.0000  32.1429 0000000   0.0000  91.0714 15.28598846    15
STARLINK2_L_00001006-32
1 53837U 22340ZI  26070.40770833  .00000000  00000+0  00000-0 0  9993
2 53837  53.0000  32.1429 0000000   0.0000  94.0714 15.28598846    19
STARLINK2_L_00001006-33
1 53838U 22579HC  26070.40770833  .00000000  00000+0  00000-0 0  9998
2 53838  53.0000  32.1429 0000000   0.0000  97.0714 15.28598846    13
STARLINK2_L_00001006-34
1 53839U 23730WX  26070.40770833  .00000000  00000+0  00000-0 0  9999
2 53839  53.0000  32.1429 0000000   0.0000 100.0714 15.28598846    19
STARLINK2_L_00001006-35
1 53840U 26495W   26070.40770833  .00000000  00000+0  00000-0 0  9992
2 53840  53.0000  32.1429 0000000   0.0000 103.0714 15.28598846    14
STARLINK2_L_00001006-36
1 53841U 26791UA  26070.40770833  .00000000  00000+0  00000-0 0  9992
2 53841  53.0000  32.1429 0000000   0.0000 106.0714 15.28598846    18
STARLINK2_L_00001006-37
1 53842U 22192FA  26070.40770833  .00000000  00000+0  00000-0 0  9994
2 53842  53.0000  32.1429 0000000   0.0000 109.0714 15.28598846    12
STARLINK2_L_00001006-38
1 53843U 24968SR  26070.40770833  .00000000  00000+0  00000-0 0  9998
2 53843  53.0000  32.1429 0000000   0.0000 112.0714 15.28598846    17
STARLINK2_L_00001006-39
1 53844U 25241GQ  26070.40770833  .00000000  00000+0  00000-0 0  9994
2 53844  53.0000  32.1429 0000000   0.0000 115.0714 15.28598846    11
STARLINK2_L_00001006-40
1 53845U 26063LN  26070.40770833  .00000000  00000+0  00000-0 0  9998
2 53845  53.0000  32.1429 0000000   0.0000 118.0714 15.28598846    15
STARLINK2_L_00001006-41
1 53846U 22173MS  26070.40770833  .00000000  00000+0  00000-0 0  9997
2 53846  53.0000  32.1429 0000000   0.0000 121.0714 15.28598846    10
STARLINK2_L_00001006-42
1 53847U 22351TR  26070.40770833  .00000000  00000+0  00000-0 0  9996
2 53847  53.0000  32.1429 0000000   0.0000 124.0714 15.28598846    14
STARLINK2_L_00001006-43
1 53848U 22955IG  26070.40770833  .00000000  00000+0  00000-0 0  9997
2 53848  53.0000  32.1429 0000000   0.0000 127.0714 15.28598846    18
STARLINK2_L_00001006-44
1 53849U 24495I   26070.40770833  .00000000  00000+0  00000-0 0  9999
2 53849  53.0000  32.1429 0000000   0.0000 130.0714 15.28598846    13
STARLINK2_L_00001006-45
1 53850U 26012HA  26070.40770833  .00000000  00000+0  00000-0 0  9998
2 53850  53.0000  32.1429 0000000   0.0000 133.0714 15.28598846    18
STARLINK2_L_00001006-46
1 53851U 26063RO  26070.40770833  .00000000  00000+0  00000-0 0  9995
2 53851  53.0000  32.1429 0000000   0.0000 136.0714 15.28598846    12
STARLINK2_L_00001006-47
1 53852U 25339CA  26070.40770833  .00000000  00000+0  00000-0 0  9991
2 53852  53.0000  32.1429 0000000   0.0000 139.0714 15.28598846    16
STARLINK2_L_00001006-48
1 53853U 22032DJ  26070.40770833  .00000000  00000+0  00000-0 0  9999
2 53853  53.0000  32.1429 0000000   0.0000 142.0714 15.28598846    11
STARLINK2_L_00001006-49
1 53854U 22257WQ  26070.40770833  .00000000  00000+0  00000-0 0  9999
2 53854  53.0000  32.1429 0000000   0.0000 145.0714 15.28598846    15
STARLINK2_L_00001006-50
1 53855U 24804DN  26070.40770833  .00000000  00000+0  00000-0 0  9990
2 53855  53.0000  32.1429 0000000   0.0000 148.0714 15.28598846    19
STARLINK2_L_00001006-51
1 53856U 22896R   26070.40770833  .00000000  00000+0  00000-0 0  9990
2 53856  53.0000  32.1429 0000000   0.0000 151.0714 15.28598846    14
STARLINK2_L_00001006-52
1 53857U 22933CI  26070.40770833  .00000000  00000+0  00000-0 0  9993
2 53857  53.0000  32.1429 0000000   0.0000 154.0714 15.28598846    18
STARLINK2_L_00001006-53
1 53858U 23638MG  26070.40770833  .00000000  00000+0  00000-0 0  9997
2 53858  53.0000  32.1429 0000000   0.0000 157.0714 15.28598846    12
STARLINK2_L_00001006-54
1 53859U 24698HF  26070.40770833  .00000000  00000+0  00000-0 0  9995
2 53859  53.0000  32.1429 0000000   0.0000 160.0714 15.28598846    17
STARLINK2_L_00001006-55
1 53860U 23799UM  26070.40770833  .00000000  00000+0  00000-0 0  9998
2 53860  53.0000  32.1429 0000000   0.0000 163.0714 15.28598846    12
STARLINK2_L_00001006-56
1 53861U 25114HX  26070.40770833  .00000000  00000+0  00000-0 0  9992
2 53861  53.0000  32.1429 0000000   0.0000 166.0714 15.28598846    16
STARLINK2_L_00001006-57
1 53862U 24805DJ  26070.40770833  .00000000  00000+0  00000-0 0  9999
2 53862  53.0000  32.1429 0000000   0.0000 169.0714 15.28598846    10
STARLINK2_L_00001006-58
1 53863U 26958UE  26070.40770833  .00000000  00000+0  00000-0 0  9991
2 53863  53.0000  32.1429 0000000   0.0000 172.0714 15.28598846    15
STARLINK2_L_00001006-59
1 53864U 24555VF  26070.40770833  .00000000  00000+0  00000-0 0  9993
2 53864  53.0000  32.1429 0000000   0.0000 175.0714 15.28598846    19
STARLINK2_L_00001006-60
1 53865U 26733DH  26070.40770833  .00000000  00000+0  00000-0 0  9994
2 53865  53.0000  32.1429 0000000   0.0000 178.0714 15.28598846    13
